NORAD_CAT_ID,OBJECT_NAME,OBJECT_TYPE,EPOCH,MEAN_MOTION,ECCENTRICITY,INCLINATION,RA_OF_ASC_NODE,ARG_OF_PERICENTER,MEAN_ANOMALY,BSTAR,MEAN_MOTION_DOT,MEAN_MOTION_DDOT,TLE_LINE0,TLE_LINE1,TLE_LINE2,SEMIMAJOR_AXIS,PERIOD,APOGEE,PERIGEE,DECAYED
52096.0,STARLINK-3717,PAYLOAD,2022-12-15 18:38:17,15.088433600000002,0.0002875,53.2186,335.9549,29.5222,330.5932,5.1024e-05,5.24e-06,0.0,0 STARLINK-3717,1 52096U 22029J   22349.77659620  .00000524  00000-0  51024-4 0  9996,2 52096  53.2186 335.9549 0002875  29.5222 330.5932 15.08843360 42651,6917.87,95.437,541.724,537.746,0.0
52096.0,STARLINK-3717,PAYLOAD,2022-12-16 02:35:13,15.08848877,0.0002842,53.2185,334.4679,29.4031,330.712,0.00015325,2.152e-05,0.0,0 STARLINK-3717,1 52096U 22029J   22350.10779158  .00002152  00000-0  15325-3 0  9996,2 52096  53.2185 334.4679 0002842  29.4031 330.7120 15.08848877 42704,6917.853,95.437,541.684,537.752,0.0
52096.0,STARLINK-3717,PAYLOAD,2022-12-16 13:42:55,15.0885065,0.0002956,53.2179,332.3871,28.6631,331.4523,0.00015675,2.208e-05,0.0,0 STARLINK-3717,1 52096U 22029J   22350.57147288  .00002208  00000-0  15675-3 0  9990,2 52096  53.2179 332.3871 0002956  28.6631 331.4523 15.08850650 42775,6917.848000000001,95.437,541.758,537.668,0.0
52096.0,STARLINK-3717,PAYLOAD,2022-12-16 20:04:28,15.08839031,0.00029,53.2178,331.1981,28.8479,331.2673,6.0235e-05,6.7e-06,0.0,0 STARLINK-3717,1 52096U 22029J   22350.83643756  .00000670  00000-0  60235-4 0  9994,2 52096  53.2178 331.1981 0002900  28.8479 331.2673 15.08839031 42813,6917.8830000000025,95.438,541.755,537.742,0.0
52096.0,STARLINK-3717,PAYLOAD,2022-12-17 02:26:00,15.08841961,0.000282,53.2179,330.0082,28.1013,332.0131,6.6583e-05,7.71e-06,0.0,0 STARLINK-3717,1 52096U 22029J   22351.10139559  .00000771  00000-0  66583-4 0  9990,2 52096  53.2179 330.0082 0002820  28.1013 332.0131 15.08841961 42859,6917.874,95.437,541.69,537.789,0.0
52096.0,STARLINK-3717,PAYLOAD,2022-12-17 05:36:47,15.08833941,0.0002799,53.2179,329.4134,27.4909,332.6231,-1.8313e-05,-5.8e-06,0.0,0 STARLINK-3717,1 52096U 22029J   22351.23387993 -.00000580  00000-0 -18313-4 0  9999,2 52096  53.2179 329.4134 0002799  27.4909 332.6231 15.08833941 42878,6917.899,95.438,541.7,537.828,0.0
52096.0,STARLINK-3717,PAYLOAD,2022-12-17 10:22:56,15.08832793,0.0002833999999999,53.2178,328.5213,27.4859,332.6282,-2.822e-05,-7.38e-06,0.0,0 STARLINK-3717,1 52096U 22029J   22351.43260134 -.00000738  00000-0 -28220-4 0  9991,2 52096  53.2178 328.5213 0002834  27.4859 332.6282 15.08832793 42903,6917.901999999999,95.438,541.7280000000002,537.807,0.0
52096.0,STARLINK-3717,PAYLOAD,2022-12-18 02:16:48,15.0883048,0.0002714,53.2188,325.5475,29.979,330.1357,-2.7656e-05,-7.29e-06,0.0,0 STARLINK-3717,1 52096U 22029J   22352.09500999 -.00000729  00000-0 -27656-4 0  9992,2 52096  53.2188 325.5475 0002714  29.9790 330.1357 15.08830480 43008,6917.909000000002,95.438,541.6519999999998,537.8969999999998,0.0
52096.0,STARLINK-3717,PAYLOAD,2022-12-18 05:27:34,15.08837235,0.000279,53.2186,324.9531,25.6508,334.4622,2.533e-05,1.15e-06,0.0,0 STARLINK-3717,1 52096U 22029J   22352.22748539  .00000115  00000-0  25330-4 0  9995,2 52096  53.2186 324.9531 0002790  25.6508 334.4622 15.08837235 43025,6917.889,95.438,541.684,537.8240000000002,0.0
52096.0,STARLINK-3717,PAYLOAD,2022-12-18 21:21:26,15.08835634,0.0002761,53.2185,321.9793,25.9451,334.168,2.6577e-05,1.34e-06,0.0,0 STARLINK-3717,1 52096U 22029J   22352.88988865  .00000134  00000-0  26577-4 0  9990,2 52096  53.2185 321.9793 0002761  25.9451 334.1680 15.08835634 43122,6917.894,95.438,541.669,537.849,0.0
52096.0,STARLINK-3717,PAYLOAD,2022-12-19 06:53:44,15.08845186,0.0002802,53.2179,320.1958,26.3353,333.7782,0.00024119,3.553e-05,0.0,0 STARLINK-3717,1 52096U 22029J   22353.28732434  .00003553  00000-0  24119-3 0  9991,2 52096  53.2179 320.1958 0002802  26.3353 333.7782 15.08845186 43188,6917.865,95.437,541.668,537.7909999999998,0.0
52096.0,STARLINK-3717,PAYLOAD,2022-12-19 21:12:12,15.08849748,0.0002627,53.2187,317.5178,25.7266,334.3856,0.00035173,5.315e-05,0.0,0 STARLINK-3717,1 52096U 22029J   22353.88348290  .00005315  00000-0  35173-3 0  9990,2 52096  53.2187 317.5178 0002627  25.7266 334.3856 15.08849748 43279,6917.851,95.437,541.533,537.898,0.0
52096.0,STARLINK-3717,PAYLOAD,2022-12-20 06:44:31,15.08866656,0.0002691,53.2172,315.7354,23.8897,336.222,0.00056872,8.781e-05,0.0,0 STARLINK-3717,1 52096U 22029J   22354.28091440  .00008781  00000-0  56872-3 0  9996,2 52096  53.2172 315.7354 0002691  23.8897 336.2220 15.08866656 43339,6917.799,95.436,541.525,537.802,0.0
52096.0,STARLINK-3717,PAYLOAD,2022-12-20 14:41:26,15.08860015,0.0002892,53.2172,314.2486,27.4718,332.6426,0.00017718,2.534e-05,0.0,0 STARLINK-3717,1 52096U 22029J   22354.61211203  .00002534  00000-0  17718-3 0  9990,2 52096  53.2172 314.2486 0002892  27.4718 332.6426 15.08860015 43380,6917.819,95.436,541.685,537.684,0.0
52096.0,STARLINK-3717,PAYLOAD,2022-12-21 03:24:32,15.08826308,0.0002733,53.2178,311.8691,32.5497,327.5664,-0.00039867,-6.626e-05,0.0,0 STARLINK-3717,1 52096U 22029J   22355.14204243 -.00006626  00000-0 -39867-3 0  9992,2 52096  53.2178 311.8691 0002733  32.5497 327.5664 15.08826308 43465,6917.922,95.438,541.678,537.8969999999998,0.0
52096.0,STARLINK-3717,PAYLOAD,2022-12-21 09:46:05,15.08829701,0.000282,53.2177,310.6792,27.0058,333.108,-0.00030339,-5.113e-05,0.0,0 STARLINK-3717,1 52096U 22029J   22355.40700270 -.00005113  00000-0 -30339-3 0  9997,2 52096  53.2177 310.6792 0002820  27.0058 333.1080 15.08829701 43502,6917.9119999999975,95.438,541.7280000000002,537.826,0.0
52096.0,STARLINK-3717,PAYLOAD,2022-12-21 14:32:14,15.08834651,0.0002876,53.2176,309.7879,29.4494,330.6659,-0.00016548,-2.921e-05,0.0,0 STARLINK-3717,1 52096U 22029J   22355.60572159 -.00002921  00000-0 -16548-3 0  9992,2 52096  53.2176 309.7879 0002876  29.4494 330.6659 15.08834651 43534,6917.897,95.438,541.751,537.7719999999998,0.0
52096.0,STARLINK-3717,PAYLOAD,2022-12-22 08:01:29,15.08826644,0.0002797,53.2173,306.5161,28.3206,331.7937,0.0003571,5.398e-05,0.0,0 STARLINK-3717,1 52096U 22029J   22356.33437331  .00005398  00000-0  35710-3 0  9996,2 52096  53.2173 306.5161 0002797  28.3206 331.7937 15.08826644 43647,6917.920999999999,95.438,541.721,537.851,0.0
52096.0,STARLINK-3717,PAYLOAD,2022-12-22 14:23:02,15.0883416,0.0002853,53.2174,305.327,30.3719,329.7438,0.00065028,0.00010075,0.0,0 STARLINK-3717,1 52096U 22029J   22356.59933479  .00010075  00000-0  65028-3 0  9991,2 52096  53.2174 305.3270 0002853  30.3719 329.7438 15.08834160 43680,6917.898,95.438,541.737,537.79,0.0
52096.0,STARLINK-3717,PAYLOAD,2022-12-23 03:06:07,15.08848368,0.0002905,53.2175,302.9479,28.8902,331.2251,0.00073283,0.00011397,0.0,0 STARLINK-3717,1 52096U 22029J   22357.12925356  .00011397  00000-0  73283-3 0  9996,2 52096  53.2175 302.9479 0002905  28.8902 331.2251 15.08848368 43764,6917.855,95.437,541.729,537.71,0.0
52096.0,STARLINK-3717,PAYLOAD,2022-12-23 07:52:16,15.08849227,0.000287,53.2176,302.056,28.8615,331.2535,0.00061487,9.514e-05,0.0,0 STARLINK-3717,1 52096U 22029J   22357.32797334  .00009514  00000-0  61487-3 0  9992,2 52096  53.2176 302.0560 0002870  28.8615 331.2535 15.08849227 43792,6917.852,95.437,541.703,537.732,0.0
52096.0,STARLINK-3717,PAYLOAD,2022-12-23 20:35:22,15.0884258,0.0003316,53.2184,299.6776,31.698,328.4211,0.00022799,3.342e-05,0.0,0 STARLINK-3717,1 52096U 22029J   22357.85789510  .00003342  00000-0  22799-3 0  9993,2 52096  53.2184 299.6776 0003316  31.6980 328.4211 15.08842580 43877,6917.873000000001,95.437,542.031,537.444,0.0
52096.0,STARLINK-3717,PAYLOAD,2022-12-24 02:56:54,15.08850344,0.0002894,53.2179,298.488,31.0835,329.0328,0.00042408,6.469e-05,0.0,0 STARLINK-3717,1 52096U 22029J   22358.12285224  .00006469  00000-0  42408-3 0  9999,2 52096  53.2179 298.4880 0002894  31.0835 329.0328 15.08850344 43915,6917.849,95.437,541.716,537.712,0.0
52096.0,STARLINK-3717,PAYLOAD,2022-12-24 06:07:40,15.08853521,0.0002921999999999,53.2178,297.8932,30.896,329.2204,0.00040344,6.141e-05,0.0,0 STARLINK-3717,1 52096U 22029J   22358.25532988  .00006141  00000-0  40344-3 0  9999,2 52096  53.2178 297.8932 0002922  30.8960 329.2204 15.08853521 43930,6917.839,95.437,541.725,537.683,0.0
52096.0,STARLINK-3717,PAYLOAD,2022-12-25 02:47:41,15.08843972,0.0002866,53.218,294.0279,27.4347,332.6796,5.0071e-05,5.08e-06,0.0,0 STARLINK-3717,1 52096U 22029J   22359.11645026  .00000508  00000-0  50071-4 0  9993,2 52096  53.2180 294.0279 0002866  27.4347 332.6796 15.08843972 44062,6917.868,95.437,541.716,537.751,0.0
52096.0,STARLINK-3717,PAYLOAD,2022-12-25 12:20:00,15.08837524,0.0002907,53.218,292.244,29.3222,330.7933,7.478699999999998e-07,-2.77e-06,0.0,0 STARLINK-3717,1 52096U 22029J   22359.51389332 -.00000277  00000-0  74787-6 0  9998,2 52096  53.2180 292.2440 0002907  29.3222 330.7933 15.08837524 44126,6917.888000000001,95.438,541.764,537.742,0.0
52096.0,STARLINK-3717,PAYLOAD,2022-12-25 18:41:33,15.08833608,0.0002985,53.2176,291.056,31.9601,328.1572,-6.3674e-05,-1.302e-05,0.0,0 STARLINK-3717,1 52096U 22029J   22359.77885624 -.00001302  00000-0 -63674-4 0  9993,2 52096  53.2176 291.0560 0002985  31.9601 328.1572 15.08833608 44160,6917.9,95.438,541.83,537.7,0.0
52096.0,STARLINK-3717,PAYLOAD,2022-12-26 02:38:29,15.08828073,0.0002818,53.219,289.5686,32.2258,327.8905,-7.937e-05,-1.551e-05,0.0,0 STARLINK-3717,1 52096U 22029J   22360.11006737 -.00001551  00000-0 -79370-4 0  9999,2 52096  53.2190 289.5686 0002818  32.2258 327.8905 15.08828073 44216,6917.917,95.438,541.731,537.832,0.0
52096.0,STARLINK-3717,PAYLOAD,2022-12-26 05:49:16,15.08829855,0.0002849,53.2184,288.9733,31.5278,328.5885,-6.6806e-05,-1.351e-05,0.0,0 STARLINK-3717,1 52096U 22029J   22360.24254726 -.00001351  00000-0 -66806-4 0  9994,2 52096  53.2184 288.9733 0002849  31.5278 328.5885 15.08829855 44239,6917.911,95.438,541.747,537.805,0.0
